HST                     
1 20580U 90037B   23295.90125887  .00005877  00000+0  30042-3 0  9993
2 20580  28.4675 137.4884 0002569 332.3628 123.3179 15.14547621640836
